{"type": "FeatureCollection", "features": [ {"type": "Feature", "properties": {"norad_id": 34538, "name": "IRIDIUM 33 DEB", "group": "iridium-33-debris", "lat": 60.515855090234766, "lon": 6.1522461244439, "alt_km": 761.1567364469001, "timestamp": "2025-12-26T11:25:45.576260+00:00", "meta": {"OBJECT_NAME": "IRIDIUM 33 DEB", "OBJECT_ID": "1997-051JF", "EPOCH": "2025-12-24T17:48:32.243904", "MEAN_MOTION": 14.42715706, "ECCENTRICITY": 0.00319126, "INCLINATION": 86.2764, "RA_OF_ASC_NODE": 0.2977, "ARG_OF_PERICENTER": 286.3391, "MEAN_ANOMALY": 132.9527, "EPHEMERIS_TYPE": 0, "CLASSIFICATION_TYPE": "U", "NORAD_CAT_ID": 34538, "ELEMENT_SET_NO": 999, "REV_AT_EPOCH": 87929, "BSTAR": 0.00092856968, "MEAN_MOTION_DOT": 3.127e-05, "MEAN_MOTION_DDOT": 0}, "tle": {"line1": "1 34538U 97051JF  25358.74203986  .00003127  00000+0  92857-3 0  9993", "line2": "2 34538  86.2764   0.2977 0031912 286.3391 132.9527 14.42715706879292"}}, "geometry": {"type": "Point", "coordinates": [6.1522461244439, 60.515855090234766]}}, {"type": "Feature", "properties": {"norad_id": 34540, "name": "IRIDIUM 33 DEB", "group": "iridium-33-debris", "lat": -63.03621174743543, "lon": -65.95897320684017, "alt_km": 663.4284614574781, "timestamp": "2025-12-26T11:25:45.576270+00:00", "meta": {"OBJECT_NAME": "IRIDIUM 33 DEB", "OBJECT_ID": "1997-051JH", "EPOCH": "2025-12-25T21:20:32.965152", "MEAN_MOTION": 14.7558704, "ECCENTRICITY": 0.0018381, "INCLINATION": 86.3113, "RA_OF_ASC_NODE": 301.5947, "ARG_OF_PERICENTER": 115.6861, "MEAN_ANOMALY": 305.1925, "EPHEMERIS_TYPE": 0, "CLASSIFICATION_TYPE": "U", "NORAD_CAT_ID": 34540, "ELEMENT_SET_NO": 999, "REV_AT_EPOCH": 89215, "BSTAR": 0.0015794, "MEAN_MOTION_DOT": 0.00010827, "MEAN_MOTION_DDOT": 0}, "tle": {"line1": "1 34540U 97051JH  25359.88927043  .00010827  00000+0  15794-2 0  9998", "line2": "2 34540  86.3113 301.5947 0018381 115.6861 305.1925 14.75587040892159"}}, "geometry": {"type": "Point", "coordinates": [-65.95897320684017, -63.03621174743543]}}, {"type": "Feature", "properties": {"norad_id": 34648, "name": "IRIDIUM 33 DEB", "group": "iridium-33-debris", "lat": 6.941915797191893, "lon": 95.95994369475166, "alt_km": 836.5860657382254, "timestamp": "2025-12-26T11:25:45.576279+00:00", "meta": {"OBJECT_NAME": "IRIDIUM 33 DEB", "OBJECT_ID": "1997-051JZ", "EPOCH": "2025-12-24T12:40:05.266272", "MEAN_MOTION": 14.11825085, "ECCENTRICITY": 0.01786115, "INCLINATION": 86.3902, "RA_OF_ASC_NODE": 277.1873, "ARG_OF_PERICENTER": 261.8681, "MEAN_ANOMALY": 96.2208, "EPHEMERIS_TYPE": 0, "CLASSIFICATION_TYPE": "U", "NORAD_CAT_ID": 34648, "ELEMENT_SET_NO": 999, "REV_AT_EPOCH": 85127, "BSTAR": 0.0070051894, "MEAN_MOTION_DOT": 0.00014884, "MEAN_MOTION_DDOT": 0}, "tle": {"line1": "1 34648U 97051JZ  25358.52783873  .00014884  00000+0  70052-2 0  9993", "line2": "2 34648  86.3902 277.1873 0178611 261.8681  96.2208 14.11825085851271"}}, "geometry": {"type": "Point", "coordinates": [95.95994369475166, 6.941915797191893]}}, {"type": "Feature", "properties": {"norad_id": 34651, "name": "IRIDIUM 33 DEB", "group": "iridium-33-debris", "lat": -36.884472929112825, "lon": -42.47058155348011, "alt_km": 753.8260374060292, "timestamp": "2025-12-26T11:25:45.576288+00:00", "meta": {"OBJECT_NAME": "IRIDIUM 33 DEB", "OBJECT_ID": "1997-051KC", "EPOCH": "2025-12-25T15:53:57.959232", "MEAN_MOTION": 14.26027654, "ECCENTRICITY": 0.0142018, "INCLINATION": 86.2827, "RA_OF_ASC_NODE": 135.0795, "ARG_OF_PERICENTER": 163.1805, "MEAN_ANOMALY": 197.4168, "EPHEMERIS_TYPE": 0, "CLASSIFICATION_TYPE": "U", "NORAD_CAT_ID": 34651, "ELEMENT_SET_NO": 999, "REV_AT_EPOCH": 86080, "BSTAR": 0.0036817, "MEAN_MOTION_DOT": 9.797e-05, "MEAN_MOTION_DDOT": 0}, "tle": {"line1": "1 34651U 97051KC  25359.66247638  .00009797  00000+0  36817-2 0  9995", "line2": "2 34651  86.2827 135.0795 0142018 163.1805 197.4168 14.26027654860809"}}, "geometry": {"type": "Point", "coordinates": [-42.47058155348011, -36.884472929112825]}}, {"type": "Feature", "properties": {"norad_id": 34652, "name": "IRIDIUM 33 DEB", "group": "iridium-33-debris", "lat": -73.41965925744944, "lon": 166.32657335065974, "alt_km": 675.657985605364, "timestamp": "2025-12-26T11:25:45.576298+00:00", "meta": {"OBJECT_NAME": "IRIDIUM 33 DEB", "OBJECT_ID": "1997-051KD", "EPOCH": "2025-12-25T04:47:40.914240", "MEAN_MOTION": 14.62168979, "ECCENTRICITY": 0.0025437, "INCLINATION": 86.3321, "RA_OF_ASC_NODE": 334.4529, "ARG_OF_PERICENTER": 252.4347, "MEAN_ANOMALY": 126.6927, "EPHEMERIS_TYPE": 0, "CLASSIFICATION_TYPE": "U", "NORAD_CAT_ID": 34652, "ELEMENT_SET_NO": 999, "REV_AT_EPOCH": 88666, "BSTAR": 0.0010092, "MEAN_MOTION_DOT": 5.122e-05, "MEAN_MOTION_DDOT": 0}, "tle": {"line1": "1 34652U 97051KD  25359.19977910  .00005122  00000+0  10092-2 0  9992", "line2": "2 34652  86.3321 334.4529 0025437 252.4347 126.6927 14.62168979886663"}}, "geometry": {"type": "Point", "coordinates": [166.32657335065974, -73.41965925744944]}}, {"type": "Feature", "properties": {"norad_id": 34690, "name": "IRIDIUM 33 DEB", "group": "iridium-33-debris", "lat": 48.75985758920289, "lon": -153.1238733996061, "alt_km": 710.1864734820047, "timestamp": "2025-12-26T11:25:45.576307+00:00", "meta": {"OBJECT_NAME": "IRIDIUM 33 DEB", "OBJECT_ID": "1997-051KM", "EPOCH": "2025-12-26T01:03:16.116192", "MEAN_MOTION": 14.55142163, "ECCENTRICITY": 0.0009306, "INCLINATION": 86.3773, "RA_OF_ASC_NODE": 31.2082, "ARG_OF_PERICENTER": 344.5785, "MEAN_ANOMALY": 43.326, "EPHEMERIS_TYPE": 0, "CLASSIFICATION_TYPE": "U", "NORAD_CAT_ID": 34690, "ELEMENT_SET_NO": 999, "REV_AT_EPOCH": 88288, "BSTAR": 0.00040777, "MEAN_MOTION_DOT": 1.782e-05, "MEAN_MOTION_DDOT": 0}, "tle": {"line1": "1 34690U 97051KM  25360.04393653  .00001782  00000+0  40777-3 0  9998", "line2": "2 34690  86.3773  31.2082 0009306 344.5785  43.3260 14.55142163882882"}}, "geometry": {"type": "Point", "coordinates": [-153.1238733996061, 48.75985758920289]}}, {"type": "Feature", "properties": {"norad_id": 34693, "name": "IRIDIUM 33 DEB", "group": "iridium-33-debris", "lat": -75.73529982518433, "lon": 131.71071876725128, "alt_km": 483.32570806077365, "timestamp": "2025-12-26T11:25:45.576316+00:00", "meta": {"OBJECT_NAME": "IRIDIUM 33 DEB", "OBJECT_ID": "1997-051KQ", "EPOCH": "2025-12-26T01:27:45.722304", "MEAN_MOTION": 15.31326155, "ECCENTRICITY": 0.0009291, "INCLINATION": 86.3048, "RA_OF_ASC_NODE": 297.1918, "ARG_OF_PERICENTER": 31.3326, "MEAN_ANOMALY": 97.0934, "EPHEMERIS_TYPE": 0, "CLASSIFICATION_TYPE": "U", "NORAD_CAT_ID": 34693, "ELEMENT_SET_NO": 999, "REV_AT_EPOCH": 89118, "BSTAR": 0.004576, "MEAN_MOTION_DOT": 0.00140905, "MEAN_MOTION_DDOT": 0}, "tle": {"line1": "1 34693U 97051KQ  25360.06094586  .00140905  00000+0  45760-2 0  9993", "line2": "2 34693  86.3048 297.1918 0009291  31.3326  97.0934 15.31326155891183"}}, "geometry": {"type": "Point", "coordinates": [131.71071876725128, -75.73529982518433]}}, {"type": "Feature", "properties": {"norad_id": 34696, "name": "IRIDIUM 33 DEB", "group": "iridium-33-debris", "lat": 57.03810754441752, "lon": 27.034797196196177, "alt_km": 646.1960896641522, "timestamp": "2025-12-26T11:25:45.576325+00:00", "meta": {"OBJECT_NAME": "IRIDIUM 33 DEB", "OBJECT_ID": "1997-051KT", "EPOCH": "2025-12-26T01:36:24.067008", "MEAN_MOTION": 14.65708991, "ECCENTRICITY": 0.0073893, "INCLINATION": 86.1852, "RA_OF_ASC_NODE": 21.3194, "ARG_OF_PERICENTER": 122.6811, "MEAN_ANOMALY": 297.1917, "EPHEMERIS_TYPE": 0, "CLASSIFICATION_TYPE": "U", "NORAD_CAT_ID": 34696, "ELEMENT_SET_NO": 999, "REV_AT_EPOCH": 86868, "BSTAR": 0.0037728, "MEAN_MOTION_DOT": 0.00021447, "MEAN_MOTION_DDOT": 0}, "tle": {"line1": "1 34696U 97051KT  25360.06694522  .00021447  00000+0  37728-2 0  9996", "line2": "2 34696  86.1852  21.3194 0073893 122.6811 297.1917 14.65708991868683"}}, "geometry": {"type": "Point", "coordinates": [27.034797196196177, 57.03810754441752]}}, {"type": "Feature", "properties": {"norad_id": 34765, "name": "IRIDIUM 33 DEB", "group": "iridium-33-debris", "lat": 22.94814022310985, "lon": -154.687786787954, "alt_km": 744.5480984891728, "timestamp": "2025-12-26T11:25:45.576333+00:00", "meta": {"OBJECT_NAME": "IRIDIUM 33 DEB", "OBJECT_ID": "1997-051LJ", "EPOCH": "2025-12-26T02:40:33.184416", "MEAN_MOTION": 14.40497451, "ECCENTRICITY": 0.0016973, "INCLINATION": 86.3379, "RA_OF_ASC_NODE": 27.0226, "ARG_OF_PERICENTER": 166.6572, "MEAN_ANOMALY": 260.0722, "EPHEMERIS_TYPE": 0, "CLASSIFICATION_TYPE": "U", "NORAD_CAT_ID": 34765, "ELEMENT_SET_NO": 999, "REV_AT_EPOCH": 87806, "BSTAR": 0.00037005, "MEAN_MOTION_DOT": 1.198e-05, "MEAN_MOTION_DDOT": 0}, "tle": {"line1": "1 34765U 97051LJ  25360.11149519  .00001198  00000+0  37005-3 0  9990", "line2": "2 34765  86.3379  27.0226 0016973 166.6572 260.0722 14.40497451878068"}}, "geometry": {"type": "Point", "coordinates": [-154.687786787954, 22.94814022310985]}}, {"type": "Feature", "properties": {"norad_id": 34833, "name": "IRIDIUM 33 DEB", "group": "iridium-33-debris", "lat": 47.85943869078104, "lon": -138.92621245458488, "alt_km": 709.6976053422368, "timestamp": "2025-12-26T11:25:45.576342+00:00", "meta": {"OBJECT_NAME": "IRIDIUM 33 DEB", "OBJECT_ID": "1997-051MH", "EPOCH": "2025-12-26T02:41:22.045344", "MEAN_MOTION": 14.5245115, "ECCENTRICITY": 0.0021152, "INCLINATION": 86.3918, "RA_OF_ASC_NODE": 45.2295, "ARG_OF_PERICENTER": 57.6143, "MEAN_ANOMALY": 331.1785, "EPHEMERIS_TYPE": 0, "CLASSIFICATION_TYPE": "U", "NORAD_CAT_ID": 34833, "ELEMENT_SET_NO": 999, "REV_AT_EPOCH": 87909, "BSTAR": 0.00066936, "MEAN_MOTION_DOT": 2.757e-05, "MEAN_MOTION_DDOT": 0}, "tle": {"line1": "1 34833U 97051MH  25360.11206071  .00002757  00000+0  66936-3 0  9990", "line2": "2 34833  86.3918  45.2295 0021152  57.6143 331.1785 14.52451150879091"}}, "geometry": {"type": "Point", "coordinates": [-138.92621245458488, 47.85943869078104]}}]}